[ {"name": "STARLINK-32846", "line1": "1 62867U 25022P   26191.74158131  .00021820  00000+0  65519-3 0  9990", "line2": "2 62867  53.1588 277.0649 0001092 103.6084 256.5040 15.34392504 80758"}, {"name": "STARLINK-32822", "line1": "1 62868U 25022Q   26191.78988613  .00021660  00000+0  65035-3 0  9996", "line2": "2 62868  53.1586 276.6741 0000756  82.5694 277.5395 15.34398733 80760"}, {"name": "STARLINK-32813", "line1": "1 62869U 25022R   26192.46228650  .00036954  00000+0  10989-2 0  9990", "line2": "2 62869  53.1583 273.7617 0002208 160.7437 199.3650 15.34414496 80867"}, {"name": "STARLINK-32861", "line1": "1 62870U 25022S   26192.57314109  .00017493  00000+0  52743-3 0  9991", "line2": "2 62870  53.1602 271.6107 0001110  62.7817 297.3298 15.34412385 80903"}, {"name": "STARLINK-32814", "line1": "1 62871U 25022T   26192.75002315  .00017712  00000+0  53428-3 0  9990", "line2": "2 62871  53.1580 272.1206 0000290 346.2897 315.2423 15.34389220  5808"}, {"name": "STARLINK-32849", "line1": "1 62872U 25022U   26192.69758853  .00022799  00000+0  68458-3 0  9999", "line2": "2 62872  53.1576 272.3882 0000834  80.3051 279.8045 15.34365712 80907"}, {"name": "STARLINK-32833", "line1": "1 62873U 25022V   26192.71231065  .00012898  00000+0  39214-3 0  9991", "line2": "2 62873  53.1590 272.4762 0001029  75.3648 284.7468 15.34405744 80909"}, {"name": "STARLINK-32793", "line1": "1 62874U 25022W   26192.22068029  .00049229  00000+0  14607-2 0  9992", "line2": "2 62874  53.1591 275.1011 0001969  66.6691 293.4518 15.34353437 80827"}, {"name": "STARLINK-32834", "line1": "1 62875U 25022X   26192.69969103  .00016573  00000+0  50046-3 0  9991", "line2": "2 62875  53.1587 272.4004 0001683  38.1666 321.9456 15.34405915 80900"}, {"name": "STARLINK-11371 [DTC]", "line1": "1 62879U 25024A   26192.29748511  .00142849  00000+0  10952-2 0  9998", "line2": "2 62879  43.0003 156.6851 0001282 305.0195  55.0552 15.70894452 82908"}, {"name": "STARLINK-11352 [DTC]", "line1": "1 62880U 25024B   26192.26032063  .00110459  00000+0  85019-3 0  9994", "line2": "2 62880  42.9980 156.3859 0001011 295.2533  64.8230 15.70916946 82907"}, {"name": "STARLINK-11382 [DTC]", "line1": "1 62881U 25024C   26192.28155334  .00158036  00000+0  12104-2 0  9991", "line2": "2 62881  43.0002 156.5539 0001934 253.7207 106.3448 15.70868519 82908"}, {"name": "STARLINK-11432 [DTC]", "line1": "1 62882U 25024D   26192.29217025  .00137342  00000+0  10546-2 0  9994", "line2": "2 62882  43.0006 156.6408 0002362 278.0630  81.9969 15.70876761 82909"}, {"name": "STARLINK-11419 [DTC]", "line1": "1 62883U 25024E   26192.27624612  .00162559  00000+0  12393-2 0  9997", "line2": "2 62883  42.9988 156.5102 0001509 269.2386  90.8308 15.70962867 82908"}, {"name": "STARLINK-11437 [DTC]", "line1": "1 62884U 25024F   26192.35045897  .00131620  00000+0  10108-2 0  9996", "line2": "2 62884  42.9975 156.2150 0002306  35.1310 324.9709 15.70892930 82918"}, {"name": "STARLINK-11442 [DTC]", "line1": "1 62885U 25024G   26192.24969943  .00113431  00000+0  87435-3 0  9990", "line2": "2 62885  42.9982 156.2962 0001733 301.1046  58.9651 15.70870399 82907"}, {"name": "STARLINK-11365 [DTC]", "line1": "1 62886U 25024H   26192.38217138  .00086118  00000+0  66688-3 0  9996", "line2": "2 62886  42.9992 155.5729 0001438 259.0036 101.0670 15.70869088 82920"}, {"name": "STARLINK-11436 [DTC]", "line1": "1 62887U 25024J   26191.38077030  .00116568  00000+0  89841-3 0  9990", "line2": "2 62887  42.9984 161.8320 0001104 250.9144 109.1604 15.70862359 82761"}, {"name": "STARLINK-11438 [DTC]", "line1": "1 62888U 25024K   26192.25591816  .00122725  00000+0  94683-3 0  9993", "line2": "2 62888  42.9985 156.3462 0001191 330.7942  29.2859 15.70815706 82902"}, {"name": "STARLINK-11391 [DTC]", "line1": "1 62889U 25024L   26192.32920289  .00111597  00000+0  86047-3 0  9992", "line2": "2 62889  42.9991 156.0269 0001861 272.2213  87.8441 15.70869878 82914"}, {"name": "STARLINK-11431 [DTC]", "line1": "1 62890U 25024M   26191.35435515  .00071547  00000+0  55601-3 0  9991", "line2": "2 62890  42.9986 162.5124 0000823 306.5049  53.5743 15.70852079 82759"}, {"name": "STARLINK-11435 [DTC]", "line1": "1 62891U 25024N   26192.30278252  .00125160  00000+0  96198-3 0  9998", "line2": "2 62891  43.0036 156.7194 0003642 263.6301  96.4152 15.70891428 82904"}, {"name": "STARLINK-32878", "line1": "1 62892U 25024P   26192.46100912  .00018563  00000+0  68214-3 0  9999", "line2": "2 62892  43.0032 346.5020 0001101 240.4475 119.6267 15.27592460 81192"}, {"name": "STARLINK-32892", "line1": "1 62893U 25024Q   26192.46486230  .00009351  00000+0  34887-3 0  9994", "line2": "2 62893  42.9998 346.5225 0002033 166.2004 193.8903 15.27582770 81191"}, {"name": "STARLINK-32909", "line1": "1 62894U 25024R   26192.47128991  .00008232  00000+0  30834-3 0  9998", "line2": "2 62894  43.0038 346.5790 0001879 272.7080  87.3557 15.27579576 81192"}, {"name": "STARLINK-32901", "line1": "1 62895U 25024S   26192.44301794  .00015186  00000+0  56010-3 0  9990", "line2": "2 62895  43.0006 346.3623 0001706 255.4519 104.6144 15.27586391 81193"}, {"name": "STARLINK-32890", "line1": "1 62896U 25024T   26192.47885328  .00016169  00000+0  59565-3 0  9994", "line2": "2 62896  42.9996 345.7686 0000888 225.2809 134.7971 15.27588462 81204"}, {"name": "STARLINK-32893", "line1": "1 62897U 25024U   26192.75002315  .00014028  00000+0  51846-3 0  9999", "line2": "2 62897  43.0037 344.3924 0001630 276.3039  73.0692 15.27570131  5824"}, {"name": "STARLINK-32902", "line1": "1 62898U 25024V   26192.42117419  .00016380  00000+0  60323-3 0  9999", "line2": "2 62898  43.0017 346.1914 0001563 261.8888  98.1786 15.27591938 81192"}]