OBJECT_NAME,OBJECT_ID,EPOCH,MEAN_MOTION,ECCENTRICITY,INCLINATION,RA_OF_ASC_NODE,ARG_OF_PERICENTER,MEAN_ANOMALY,EPHEMERIS_TYPE,CLASSIFICATION_TYPE,NORAD_CAT_ID,ELEMENT_SET_NO,REV_AT_EPOCH,BSTAR,MEAN_MOTION_DOT,MEAN_MOTION_DDOT
STARLINK-32846,2025-022P,2026-07-10T17:47:52.625184,15.34392504,.00010926,53.1588,277.0649,103.6084,256.5040,0,U,62867,999,8075,.655188E-3,.2182E-3,0
STARLINK-32822,2025-022Q,2026-07-10T18:57:26.161632,15.34398733,.00007564,53.1586,276.6741,82.5694,277.5395,0,U,62868,999,8076,.6503523E-3,.2166E-3,0
STARLINK-32813,2025-022R,2026-07-11T11:05:41.553600,15.34414496,.00022087,53.1583,273.7617,160.7437,199.3650,0,U,62869,999,8086,.10989181E-2,.36954E-3,0
STARLINK-32861,2025-022S,2026-07-11T13:45:19.390176,15.34412385,.00011109,53.1602,271.6107,62.7817,297.3298,0,U,62870,999,8090,.52743439E-3,.17493E-3,0
STARLINK-32814,2025-022T,2026-07-11T18:00:02.000160,15.34389220,.00002906,53.1580,272.1206,346.2897,315.2423,0,U,62871,999,580,.53427713E-3,.17712E-3,0
STARLINK-32849,2025-022U,2026-07-11T16:44:31.648992,15.34365712,.00008345,53.1576,272.3882,80.3051,279.8045,0,U,62872,999,8090,.68458441E-3,.22799E-3,0
STARLINK-32833,2025-022V,2026-07-11T17:05:43.640160,15.34405744,.00010292,53.1590,272.4762,75.3648,284.7468,0,U,62873,999,8090,.39213916E-3,.12898E-3,0
STARLINK-32793,2025-022W,2026-07-11T05:17:46.777056,15.34353437,.00019693,53.1591,275.1011,66.6691,293.4518,0,U,62874,999,8082,.14607348E-2,.49229E-3,0
STARLINK-32834,2025-022X,2026-07-11T16:47:33.304992,15.34405915,.00016835,53.1587,272.4004,38.1666,321.9456,0,U,62875,999,8090,.50045696E-3,.16573E-3,0
STARLINK-11371 [DTC],2025-024A,2026-07-11T07:08:22.713504,15.70894452,.00012827,43.0003,156.6851,305.0195,55.0552,0,U,62879,999,8290,.1095224E-2,.142849E-2,0
STARLINK-11352 [DTC],2025-024B,2026-07-11T06:14:51.702432,15.70916946,.00010119,42.9980,156.3859,295.2533,64.8230,0,U,62880,999,8290,.85018878E-3,.110459E-2,0
STARLINK-11382 [DTC],2025-024C,2026-07-11T06:45:26.208576,15.70868519,.0001934,43.0002,156.5539,253.7207,106.3448,0,U,62881,999,8290,.12103582E-2,.158036E-2,0
STARLINK-11432 [DTC],2025-024D,2026-07-11T07:00:43.509600,15.70876761,.00023626,43.0006,156.6408,278.0630,81.9969,0,U,62882,999,8290,.10545508E-2,.137342E-2,0
STARLINK-11419 [DTC],2025-024E,2026-07-11T06:37:47.664768,15.70962867,.00015099,42.9988,156.5102,269.2386,90.8308,0,U,62883,999,8290,.12393289E-2,.162559E-2,0
STARLINK-11437 [DTC],2025-024F,2026-07-11T08:24:39.655008,15.70892930,.00023065,42.9975,156.2150,35.1310,324.9709,0,U,62884,999,8291,.10107798E-2,.13162E-2,0
STARLINK-11442 [DTC],2025-024G,2026-07-11T05:59:34.030752,15.70870399,.00017332,42.9982,156.2962,301.1046,58.9651,0,U,62885,999,8290,.87434651E-3,.113431E-2,0
STARLINK-11365 [DTC],2025-024H,2026-07-11T09:10:19.607232,15.70869088,.00014386,42.9992,155.5729,259.0036,101.0670,0,U,62886,999,8292,.66687922E-3,.86118E-3,0
STARLINK-11436 [DTC],2025-024J,2026-07-10T09:08:18.553920,15.70862359,.00011046,42.9984,161.8320,250.9144,109.1604,0,U,62887,999,8276,.89841336E-3,.116568E-2,0
STARLINK-11438 [DTC],2025-024K,2026-07-11T06:08:31.329024,15.70815706,.00011911,42.9985,156.3462,330.7942,29.2859,0,U,62888,999,8290,.94683069E-3,.122725E-2,0
STARLINK-11391 [DTC],2025-024L,2026-07-11T07:54:03.129696,15.70869878,.00018613,42.9991,156.0269,272.2213,87.8441,0,U,62889,999,8291,.86046798E-3,.111597E-2,0
STARLINK-11431 [DTC],2025-024M,2026-07-10T08:30:16.284960,15.70852079,.00008231,42.9986,162.5124,306.5049,53.5743,0,U,62890,999,8275,.5560126E-3,.71547E-3,0
STARLINK-11435 [DTC],2025-024N,2026-07-11T07:16:00.409728,15.70891428,.00036428,43.0036,156.7194,263.6301,96.4152,0,U,62891,999,8290,.96198488E-3,.12516E-2,0
STARLINK-32878,2025-024P,2026-07-11T11:03:51.187968,15.27592460,.00011019,43.0032,346.5020,240.4475,119.6267,0,U,62892,999,8119,.68214156E-3,.18563E-3,0
STARLINK-32892,2025-024Q,2026-07-11T11:09:24.102720,15.27582770,.00020338,42.9998,346.5225,166.2004,193.8903,0,U,62893,999,8119,.34887176E-3,.9351E-4,0
STARLINK-32909,2025-024R,2026-07-11T11:18:39.448224,15.27579576,.00018795,43.0038,346.5790,272.7080,87.3557,0,U,62894,999,8119,.30834374E-3,.8232E-4,0
STARLINK-32901,2025-024S,2026-07-11T10:37:56.750016,15.27586391,.0001706,43.0006,346.3623,255.4519,104.6144,0,U,62895,999,8119,.56010237E-3,.15186E-3,0
STARLINK-32890,2025-024T,2026-07-11T11:29:32.923392,15.27588462,.00008885,42.9996,345.7686,225.2809,134.7971,0,U,62896,999,8120,.59565334E-3,.16169E-3,0
STARLINK-32893,2025-024U,2026-07-11T18:00:02.000160,15.27570131,.00016304,43.0037,344.3924,276.3039,73.0692,0,U,62897,999,582,.51846005E-3,.14028E-3,0
STARLINK-32902,2025-024V,2026-07-11T10:06:29.450016,15.27591938,.00015637,43.0017,346.1914,261.8888,98.1786,0,U,62898,999,8119,.60323228E-3,.1638E-3,0
